start=new Date('2023-02-09T00:00:00.000Z').valueOf();
sats=[{"MEAN_MOTION_DOT":"0.00113304","OBJECT_NAME":"STARLINK-5570","LAUNCH_DATE":"2023-01-31","NORAD_CAT_ID":"55433","PERIOD":"91.727","CLASSIFICATION_TYPE":"U","PERIAPSIS":"356.983","SITE":"AFWTR","ECCENTRICITY":"0.00033530","EPHEMERIS_TYPE":"0","EPOCH":"2023-02-08T22:00:00.999936","MEAN_ANOMALY":"161.8054","RCS_SIZE":null,"MEAN_ELEMENT_THEORY":"SGP4","APOAPSIS":"361.501","TLE_LINE2":"2 55433  70.0065  66.5787 0003353 270.7413 161.8054 15.69880030  1306","BSTAR":"0.00093310000000","CENTER_NAME":"EARTH","SEMIMAJOR_AXIS":"6737.377","OBJECT_ID":"2023-014AU","TIME_SYSTEM":"UTC","MEAN_MOTION":"15.69880030","DECAY_DATE":null,"MEAN_MOTION_DDOT":"0.0000000000000","ARG_OF_PERICENTER":"270.7413","INCLINATION":"70.0065","TLE_LINE1":"1 55433U 23014AU  23039.91667824  .00113304  00000-0  93310-3 0  9991","COUNTRY_CODE":"US","OBJECT_TYPE":"PAYLOAD","REF_FRAME":"TEME","FILE":"3780893","REV_AT_EPOCH":"130","GP_ID":"224862545","ELEMENT_SET_NO":"999","RA_OF_ASC_NODE":"66.5787"},{"MEAN_MOTION_DOT":"0.00039102","OBJECT_NAME":"STARLINK-5621","LAUNCH_DATE":"2023-01-31","PERIOD":"91.724","NORAD_CAT_ID":"55434","CLASSIFICATION_TYPE":"U","PERIAPSIS":"357.015","SITE":"AFWTR","ECCENTRICITY":"0.00031100","EPHEMERIS_TYPE":"0","EPOCH":"2023-02-08T22:00:00.999936","MEAN_ANOMALY":"152.8109","APOAPSIS":"361.205","MEAN_ELEMENT_THEORY":"SGP4","RCS_SIZE":null,"TLE_LINE2":"2 55434  70.0014  66.5814 0003110 276.7218 152.8109 15.69926176  1305","SEMIMAJOR_AXIS":"6737.245","CENTER_NAME":"EARTH","OBJECT_ID":"2023-014AV","BSTAR":"0.00032543000000","MEAN_MOTION":"15.69926176","TIME_SYSTEM":"UTC","DECAY_DATE":null,"MEAN_MOTION_DDOT":"0.0000000000000","ARG_OF_PERICENTER":"276.7218","TLE_LINE1":"1 55434U 23014AV  23039.91667824  .00039102  00000-0  32543-3 0  9996","INCLINATION":"70.0014","COUNTRY_CODE":"US","REF_FRAME":"TEME","OBJECT_TYPE":"PAYLOAD","GP_ID":"224862797","FILE":"3780893","REV_AT_EPOCH":"130","ELEMENT_SET_NO":"999","RA_OF_ASC_NODE":"66.5814"},{"ARG_OF_PERICENTER":"265.1258","MEAN_MOTION_DDOT":"0.0000000000000","DECAY_DATE":null,"INCLINATION":"70.0054","TLE_LINE1":"1 55435U 23014AW  23039.91667824  .00152466  00000-0  12509-2 0  9995","COUNTRY_CODE":"US","OBJECT_TYPE":"PAYLOAD","REF_FRAME":"TEME","ELEMENT_SET_NO":"999","FILE":"3780893","REV_AT_EPOCH":"130","GP_ID":"224862796","RA_OF_ASC_NODE":"66.5808","MEAN_MOTION_DOT":"0.00152466","OBJECT_NAME":"STARLINK-5626","NORAD_CAT_ID":"55435","PERIOD":"91.729","LAUNCH_DATE":"2023-01-31","SITE":"AFWTR","ECCENTRICITY":"0.00033190","PERIAPSIS":"357.103","CLASSIFICATION_TYPE":"U","EPOCH":"2023-02-08T22:00:00.999936","EPHEMERIS_TYPE":"0","MEAN_ANOMALY":"165.6510","TLE_LINE2":"2 55435  70.0054  66.5808 0003319 265.1258 165.6510 15.69846002  1307","RCS_SIZE":null,"APOAPSIS":"361.576","MEAN_ELEMENT_THEORY":"SGP4","TIME_SYSTEM":"UTC","MEAN_MOTION":"15.69846002","BSTAR":"0.00125090000000","SEMIMAJOR_AXIS":"6737.475","CENTER_NAME":"EARTH","OBJECT_ID":"2023-014AW"},{"OBJECT_TYPE":"PAYLOAD","REF_FRAME":"TEME","COUNTRY_CODE":"US","RA_OF_ASC_NODE":"66.5822","REV_AT_EPOCH":"130","FILE":"3780893","GP_ID":"224862806","ELEMENT_SET_NO":"999","INCLINATION":"70.0040","TLE_LINE1":"1 55436U 23014AX  23039.91667824  .00088696  00000-0  73304-3 0  9990","DECAY_DATE":null,"MEAN_MOTION_DDOT":"0.0000000000000","ARG_OF_PERICENTER":"271.0663","MEAN_ANOMALY":"157.9163","EPHEMERIS_TYPE":"0","EPOCH":"2023-02-08T22:00:00.999936","BSTAR":"0.00073304000000","CENTER_NAME":"EARTH","SEMIMAJOR_AXIS":"6737.386","OBJECT_ID":"2023-014AX","TIME_SYSTEM":"UTC","MEAN_MOTION":"15.69877071","RCS_SIZE":null,"APOAPSIS":"361.653","MEAN_ELEMENT_THEORY":"SGP4","TLE_LINE2":"2 55436  70.0040  66.5822 0003566 271.0663 157.9163 15.69877071  1307","OBJECT_NAME":"STARLINK-5640","MEAN_MOTION_DOT":"0.00088696","PERIAPSIS":"356.848","CLASSIFICATION_TYPE":"U","ECCENTRICITY":"0.00035660","SITE":"AFWTR","LAUNCH_DATE":"2023-01-31","NORAD_CAT_ID":"55436","PERIOD":"91.727"},{"TLE_LINE2":"2 55437  70.0061  66.5816 0003427 262.7424 167.5142 15.69860381  1302","APOAPSIS":"361.607","MEAN_ELEMENT_THEORY":"SGP4","RCS_SIZE":null,"MEAN_MOTION":"15.69860381","TIME_SYSTEM":"UTC","SEMIMAJOR_AXIS":"6737.433","CENTER_NAME":"EARTH","OBJECT_ID":"2023-014AY","BSTAR":"0.00029154000000","EPOCH":"2023-02-08T22:00:00.999936","EPHEMERIS_TYPE":"0","MEAN_ANOMALY":"167.5142","PERIOD":"91.728","NORAD_CAT_ID":"55437","LAUNCH_DATE":"2023-01-31","ECCENTRICITY":"0.00034270","SITE":"AFWTR","PERIAPSIS":"356.990","CLASSIFICATION_TYPE":"U","MEAN_MOTION_DOT":"0.00034896","OBJECT_NAME":"STARLINK-5080","ELEMENT_SET_NO":"999","GP_ID":"224862823","FILE":"3780893","REV_AT_EPOCH":"130","RA_OF_ASC_NODE":"66.5816","COUNTRY_CODE":"US","REF_FRAME":"TEME","OBJECT_TYPE":"PAYLOAD","ARG_OF_PERICENTER":"262.7424","MEAN_MOTION_DDOT":"0.0000000000000","DECAY_DATE":null,"TLE_LINE1":"1 55437U 23014AY  23039.91667824  .00034896  00000-0  29154-3 0  9998","INCLINATION":"70.0061"},{"PERIAPSIS":"354.059","CLASSIFICATION_TYPE":"U","SITE":"AFWTR","ECCENTRICITY":"0.00037490","LAUNCH_DATE":"2023-01-31","NORAD_CAT_ID":"55438","PERIOD":"91.672","OBJECT_NAME":"STARLINK-5074","MEAN_MOTION_DOT":"0.00174463","BSTAR":"0.00137140000000","SEMIMAJOR_AXIS":"6734.719","OBJECT_ID":"2023-014AZ","CENTER_NAME":"EARTH","TIME_SYSTEM":"UTC","MEAN_MOTION":"15.70809652","RCS_SIZE":null,"MEAN_ELEMENT_THEORY":"SGP4","APOAPSIS":"359.109","TLE_LINE2":"2 55438  70.0083  66.5778 0003749 263.8160 169.0492 15.70809652  1301","MEAN_ANOMALY":"169.0492","EPHEMERIS_TYPE":"0","EPOCH":"2023-02-08T22:00:00.999936","INCLINATION":"70.0083","TLE_LINE1":"1 55438U 23014AZ  23039.91667824  .00174463  00000-0  13714-2 0  9998","DECAY_DATE":null,"MEAN_MOTION_DDOT":"0.0000000000000","ARG_OF_PERICENTER":"263.8160","RA_OF_ASC_NODE":"66.5778","FILE":"3780893","REV_AT_EPOCH":"130","GP_ID":"224862815","ELEMENT_SET_NO":"999","OBJECT_TYPE":"PAYLOAD","REF_FRAME":"TEME","COUNTRY_CODE":"US"},{"MEAN_MOTION_DDOT":"0.0000000000000","ARG_OF_PERICENTER":"261.3572","DECAY_DATE":null,"INCLINATION":"70.0040","TLE_LINE1":"1 55439U 23014BA  23039.91667824  .00158608  00000-0  12997-2 0  9994","COUNTRY_CODE":"US","OBJECT_TYPE":"PAYLOAD","REF_FRAME":"TEME","ELEMENT_SET_NO":"999","REV_AT_EPOCH":"149","FILE":"3780372","GP_ID":"224827620","RA_OF_ASC_NODE":"66.5834","MEAN_MOTION_DOT":"0.00158608","OBJECT_NAME":"STARLINK-5634","NORAD_CAT_ID":"55439","PERIOD":"91.728","LAUNCH_DATE":"2023-01-31","ECCENTRICITY":"0.00033140","SITE":"AFWTR","PERIAPSIS":"357.077","CLASSIFICATION_TYPE":"U","EPOCH":"2023-02-08T22:00:00.999936","EPHEMERIS_TYPE":"0","MEAN_ANOMALY":"167.0085","TLE_LINE2":"2 55439  70.0040  66.5834 0003314 261.3572 167.0085 15.69856484  1495","RCS_SIZE":null,"APOAPSIS":"361.542","MEAN_ELEMENT_THEORY":"SGP4","TIME_SYSTEM":"UTC","MEAN_MOTION":"15.69856484","BSTAR":"0.00129970000000","SEMIMAJOR_AXIS":"6737.445","OBJECT_ID":"2023-014BA","CENTER_NAME":"EARTH"}];
